[{"OBJECT_NAME":"STARLINK-30358","OBJECT_ID":"2023-144R","EPOCH":"2026-03-08T23:42:47.774880","MEAN_MOTION":15.27573323,"ECCENTRICITY":0.00017141,"INCLINATION":43.0019,"RA_OF_ASC_NODE":288.8588,"ARG_OF_PERICENTER":277.1057,"MEAN_ANOMALY":82.96,"EPHEMERIS_TYPE":0,"CLASSIFICATION_TYPE":"U","NORAD_CAT_ID":57879,"ELEMENT_SET_NO":999,"REV_AT_EPOCH":13753,"BSTAR":-0.00010012835,"MEAN_MOTION_DOT":-3.016e-5,"MEAN_MOTION_DDOT":0},{"OBJECT_NAME":"FENGYUN 1C DEB","OBJECT_ID":"1999-025BZU","EPOCH":"2026-03-09T17:19:51.665664","MEAN_MOTION":15.28412118,"ECCENTRICITY":0.00188802,"INCLINATION":98.9598,"RA_OF_ASC_NODE":354.2029,"ARG_OF_PERICENTER":82.3682,"MEAN_ANOMALY":277.9697,"EPHEMERIS_TYPE":0,"CLASSIFICATION_TYPE":"U","NORAD_CAT_ID":31614,"ELEMENT_SET_NO":999,"REV_AT_EPOCH":97742,"BSTAR":0.011500831,"MEAN_MOTION_DOT":0.0033373,"MEAN_MOTION_DDOT":0}]
